OBJECT_NAME,OBJECT_ID,EPOCH,MEAN_MOTION,ECCENTRICITY,INCLINATION,RA_OF_ASC_NODE,ARG_OF_PERICENTER,MEAN_ANOMALY,EPHEMERIS_TYPE,CLASSIFICATION_TYPE,NORAD_CAT_ID,ELEMENT_SET_NO,REV_AT_EPOCH,BSTAR,MEAN_MOTION_DOT,MEAN_MOTION_DDOT
NIMIQ 4,2008-044A,2026-06-18T14:14:37.453056,1.00267388,.00020859,0.0370,51.4400,35.8357,311.2464,0,U,33373,999,6499,0,0,0
GALAXY 19 (G-19),2008-045A,2026-06-18T12:27:41.172192,1.00271189,.00025139,0.0328,263.5639,188.3277,264.7905,0,U,33376,999,6491,0,-.145E-5,0
ASTRA 1M,2008-057A,2026-06-18T07:52:50.488896,1.00272233,.00047618,0.3004,82.4659,25.1526,296.5216,0,U,33436,999,4574,0,.114E-5,0
EUTELSAT HOTBIRD 13C,2008-065A,2026-06-18T12:41:02.392224,1.00270426,.00033625,2.9546,79.1758,7.6248,319.9269,0,U,33459,999,4735,0,-.29E-5,0
EXPRESS-AM44,2009-007A,2026-06-18T14:34:50.514240,1.00270952,.00038028,3.4677,78.3734,1.8119,34.3560,0,U,33595,999,5230,0,-.97E-6,0
NSS-9,2009-008A,2026-06-18T13:47:32.548128,1.00270660,.00020063,1.2663,82.6434,346.1232,227.9896,0,U,33749,999,6353,0,.65E-6,0
TELSTAR 11N,2009-009A,2026-06-18T09:19:15.269088,1.00270178,.00022227,0.0235,64.8262,24.8994,279.1484,0,U,34111,999,4625,0,-.257E-5,0
WGS F2 (USA 204),2009-017A,2026-06-18T13:11:44.448000,1.00270996,.00001599,0.0178,11.0394,268.3089,242.8767,0,U,34713,999,4563,0,.62E-6,0
SES-7 (PROTOSTAR 2),2009-027A,2026-06-18T14:51:17.265312,1.00259987,.00004345,0.0418,68.6584,191.5237,337.7400,0,U,34941,999,6264,0,-.35E-5,0
MEASAT-3A,2009-032A,2026-06-18T13:40:55.681824,1.00271773,.00029083,0.0217,359.2521,81.0247,191.7721,0,U,35362,999,804,0,-.117E-5,0
GOES 14,2009-033A,2026-06-18T13:35:33.696672,1.00110477,.00018225,1.6945,83.0259,12.2907,156.4083,0,U,35491,999,660,0,-.303E-5,0
FM-5,2009-034A,2026-06-18T12:30:48.373344,1.00277833,.00006218,0.0186,296.2063,11.6391,60.4535,0,U,35493,999,4665,0,-.207E-5,0
TERRESTAR-1,2009-035A,2026-06-18T08:58:38.803872,1.00271770,.00026468,5.1759,48.8022,31.7367,209.7213,0,U,35496,999,6214,0,-.65E-6,0
ASIASAT 5,2009-042A,2026-06-18T15:06:36.119808,1.00266539,.00015686,0.0284,47.1681,39.0648,147.8466,0,U,35696,999,6172,0,0,0
JCSAT-12 (JCSAT-RA),2009-044A,2026-06-18T13:14:37.438080,1.00270600,.00002584,0.0086,14.9883,289.1618,293.3350,0,U,35755,999,6162,0,-.334E-5,0
OPTUS D3,2009-044B,2026-06-18T13:39:48.289824,1.00269321,.00027374,0.8730,268.9419,181.3874,177.5638,0,U,35756,999,6157,0,-.152E-5,0
NIMIQ 5,2009-050A,2026-06-18T15:19:22.485216,1.00269842,.00027391,0.0072,8.3041,77.0710,338.6364,0,U,35873,999,6135,0,-.263E-5,0
AMAZONAS 2,2009-054A,2026-06-18T14:17:29.676768,1.00272878,.00031298,1.8202,83.0304,5.6337,320.5408,0,U,35942,999,6119,0,-.266E-5,0
COMSATBW-1,2009-054B,2026-06-18T11:30:37.390752,1.00276711,.00026745,0.0550,162.5729,293.6151,46.2520,0,U,35943,999,6132,0,.17E-6,0
NSS-12,2009-058A,2026-06-18T13:11:36.959712,1.00270539,.00048711,0.0304,309.1949,108.1710,104.3152,0,U,36032,999,6093,0,.66E-6,0
THOR 6,2009-058B,2026-06-18T07:47:06.038880,1.00271242,.00015898,0.0184,88.0677,354.0576,300.3710,0,U,36033,999,6101,0,-.16E-6,0
INTELSAT 14 (IS-14),2009-064A,2026-06-18T10:59:47.846688,1.00272000,.00022958,0.0119,310.1717,135.4044,301.0751,0,U,36097,999,6061,0,-.28E-5,0
EUTELSAT 36B,2009-065A,2026-06-18T13:09:44.638848,1.00268624,.0005448,0.4953,81.1341,4.1786,69.4173,0,U,36101,999,6072,0,.106E-5,0
INTELSAT 15 (IS-15),2009-067A,2026-06-18T13:19:39.808704,1.00272378,.00021001,0.0150,336.6544,110.8384,104.3585,0,U,36106,999,4124,0,-.191E-5,0
WGS F3 (USA 211),2009-068A,2026-06-18T12:18:19.568736,1.00272034,.00000649,0.3252,85.7732,279.9238,315.6369,0,U,36108,999,4660,0,.58E-6,0
DIRECTV 12,2009-075A,2026-06-18T12:26:03.827904,1.00271785,.00003666,0.0436,170.7708,304.4205,235.3562,0,U,36131,999,4656,0,-.11E-5,0
BEIDOU-2 G1,2010-001A,2026-06-18T15:17:58.489728,1.00269750,.00022235,4.2972,60.4054,296.0874,280.3363,0,U,36287,999,6018,0,-.288E-5,0
SDO,2010-005A,2026-06-17T09:50:26.387232,1.00269958,.00017341,34.6527,86.3378,44.0102,180.8312,0,U,36395,999,6006,0,-.96E-6,0
INTELSAT 16 (IS-16),2010-006A,2026-06-18T12:33:33.109632,1.00272434,.0001928,0.0106,326.8305,134.2807,277.8288,0,U,36397,999,5966,0,-.251E-5,0
EWS-G2 (GOES 15),2010-008A,2026-06-18T13:13:29.279712,1.00266272,.00048186,1.2823,82.8232,42.0609,43.9667,0,U,36411,999,5965,0,.13E-6,0
ECHOSTAR 14,2010-010A,2026-06-18T14:14:20.317344,1.00269884,.00023623,0.0488,84.8891,15.9588,260.6764,0,U,36499,999,4656,0,-.6E-7,0
SES-1,2010-016A,2026-06-18T12:26:33.780192,1.00270930,.00026192,0.0320,297.3694,146.0869,268.9372,0,U,36516,999,5904,0,-.12E-5,0
