NIMIQ 4                 
1 33373U 08044A   26169.59348904  .00000000  00000+0  00000+0 0  9999
2 33373   0.0370  51.4400 0002085  35.8357 311.2464  1.00267388 64995
GALAXY 19 (G-19)        
1 33376U 08045A   26169.51922653 -.00000145  00000+0  00000+0 0  9995
2 33376   0.0328 263.5639 0002513 188.3277 264.7905  1.00271189 64910
ASTRA 1M                
1 33436U 08057A   26169.32836214  .00000114  00000+0  00000+0 0  9996
2 33436   0.3004  82.4659 0004761  25.1526 296.5216  1.00272233 45742
EUTELSAT HOTBIRD 13C    
1 33459U 08065A   26169.52849991 -.00000290  00000+0  00000+0 0  9994
2 33459   2.9546  79.1758 0003362   7.6248 319.9269  1.00270426 47350
EXPRESS-AM44            
1 33595U 09007A   26169.60752910 -.00000097  00000+0  00000+0 0  9990
2 33595   3.4677  78.3734 0003802   1.8119  34.3560  1.00270952 52306
NSS-9                   
1 33749U 09008A   26169.57468227  .00000065  00000+0  00000+0 0  9997
2 33749   1.2663  82.6434 0002006 346.1232 227.9896  1.00270660 63534
TELSTAR 11N             
1 34111U 09009A   26169.38837117 -.00000257  00000+0  00000+0 0  9993
2 34111   0.0235  64.8262 0002222  24.8994 279.1484  1.00270178 46252
WGS F2 (USA 204)        
1 34713U 09017A   26169.54982000  .00000062  00000+0  00000+0 0  9993
2 34713   0.0178  11.0394 0000159 268.3089 242.8767  1.00270996 45633
SES-7 (PROTOSTAR 2)     
1 34941U 09027A   26169.61894983 -.00000350  00000+0  00000+0 0  9998
2 34941   0.0418  68.6584 0000434 191.5237 337.7400  1.00259987 62645
MEASAT-3A               
1 35362U 09032A   26169.57008891 -.00000117  00000+0  00000+0 0  9993
2 35362   0.0217 359.2521 0002908  81.0247 191.7721  1.00271773  8047
GOES 14                 
1 35491U 09033A   26169.56636223 -.00000303  00000+0  00000+0 0  9999
2 35491   1.6945  83.0259 0001822  12.2907 156.4083  1.00110477  6600
FM-5                    
1 35493U 09034A   26169.52139321 -.00000207  00000+0  00000+0 0  9998
2 35493   0.0186 296.2063 0000621  11.6391  60.4535  1.00277833 46654
TERRESTAR-1             
1 35496U 09035A   26169.37406023 -.00000065  00000+0  00000+0 0  9993
2 35496   5.1759  48.8022 0002646  31.7367 209.7213  1.00271770 62147
ASIASAT 5               
1 35696U 09042A   26169.62958472  .00000000  00000+0  00000+0 0  9999
2 35696   0.0284  47.1681 0001568  39.0648 147.8466  1.00266539 61726
JCSAT-12 (JCSAT-RA)     
1 35755U 09044A   26169.55182220 -.00000334  00000+0  00000+0 0  9990
2 35755   0.0086  14.9883 0000258 289.1618 293.3350  1.00270600 61620
OPTUS D3                
1 35756U 09044B   26169.56930891 -.00000152  00000+0  00000+0 0  9995
2 35756   0.8730 268.9419 0002737 181.3874 177.5638  1.00269321 61576
NIMIQ 5                 
1 35873U 09050A   26169.63845469 -.00000263  00000+0  00000+0 0  9999
2 35873   0.0072   8.3041 0002739  77.0710 338.6364  1.00269842 61356
AMAZONAS 2              
1 35942U 09054A   26169.59548237 -.00000266  00000+0  00000+0 0  9991
2 35942   1.8202  83.0304 0003129   5.6337 320.5408  1.00272878 61199
COMSATBW-1              
1 35943U 09054B   26169.47959943  .00000017  00000+0  00000+0 0  9992
2 35943   0.0550 162.5729 0002674 293.6151  46.2520  1.00276711 61320
NSS-12                  
1 36032U 09058A   26169.54973333  .00000066  00000+0  00000+0 0  9997
2 36032   0.0304 309.1949 0004871 108.1710 104.3152  1.00270539 60937
THOR 6                  
1 36033U 09058B   26169.32437545 -.00000016  00000+0  00000+0 0  9990
2 36033   0.0184  88.0677 0001589 354.0576 300.3710  1.00271242 61010
INTELSAT 14 (IS-14)     
1 36097U 09064A   26169.45819267 -.00000280  00000+0  00000+0 0  9999
2 36097   0.0119 310.1717 0002295 135.4044 301.0751  1.00272000 60619
EUTELSAT 36B            
1 36101U 09065A   26169.54843332  .00000106  00000+0  00000+0 0  9992
2 36101   0.4953  81.1341 0005448   4.1786  69.4173  1.00268624 60723
INTELSAT 15 (IS-15)     
1 36106U 09067A   26169.55532186 -.00000191  00000+0  00000+0 0  9997
2 36106   0.0150 336.6544 0002100 110.8384 104.3585  1.00272378 41240
WGS F3 (USA 211)        
1 36108U 09068A   26169.51272649  .00000058  00000+0  00000+0 0  9992
2 36108   0.3252  85.7732 0000064 279.9238 315.6369  1.00272034 46602
DIRECTV 12              
1 36131U 09075A   26169.51809986 -.00000110  00000+0  00000+0 0  9996
2 36131   0.0436 170.7708 0000366 304.4205 235.3562  1.00271785 46560
BEIDOU-2 G1             
1 36287U 10001A   26169.63748252 -.00000288  00000+0  00000+0 0  9996
2 36287   4.2972  60.4054 0002223 296.0874 280.3363  1.00269750 60186
SDO                     
1 36395U 10005A   26168.41002763 -.00000096  00000+0  00000+0 0  9992
2 36395  34.6527  86.3378 0001734  44.0102 180.8312  1.00269958 60061
INTELSAT 16 (IS-16)     
1 36397U 10006A   26169.52329988 -.00000251  00000+0  00000+0 0  9992
2 36397   0.0106 326.8305 0001928 134.2807 277.8288  1.00272434 59660
EWS-G2 (GOES 15)        
1 36411U 10008A   26169.55103333  .00000013  00000+0  00000+0 0  9993
2 36411   1.2823  82.8232 0004818  42.0609  43.9667  1.00266272 59656
ECHOSTAR 14             
1 36499U 10010A   26169.59329071 -.00000006  00000+0  00000+0 0  9998
2 36499   0.0488  84.8891 0002362  15.9588 260.6764  1.00269884 46560
SES-1                   
1 36516U 10016A   26169.51844653 -.00000120  00000+0  00000+0 0  9991
2 36516   0.0320 297.3694 0002619 146.0869 268.9372  1.00270930 59047
